{
  "links" : {
    "next" : "https://api.nasa.gov/neo/rest/v1/feed?start_date=1996-05-09&end_date=1996-05-09&detailed=true&api_key=t0TVs3DtDT2H8Oy2Zy8m2eVrNsAVKAexjcZXUckd",
    "prev" : "https://api.nasa.gov/neo/rest/v1/feed?start_date=1996-05-07&end_date=1996-05-07&detailed=true&api_key=t0TVs3DtDT2H8Oy2Zy8m2eVrNsAVKAexjcZXUckd",
    "self" : "https://api.nasa.gov/neo/rest/v1/feed?start_date=1996-05-08&end_date=1996-05-08&detailed=true&api_key=t0TVs3DtDT2H8Oy2Zy8m2eVrNsAVKAexjcZXUckd"
  },
  "element_count" : 3,
  "near_earth_objects" : {
    "1996-05-08" : [ {
      "links" : {
        "self" : "https://api.nasa.gov/neo/rest/v1/neo/2318050?api_key=t0TVs3DtDT2H8Oy2Zy8m2eVrNsAVKAexjcZXUckd"
      },
      "neo_reference_id" : "2318050",
      "name" : "318050 (2004 FC32)",
      "nasa_jpl_url" : "http://ssd.jpl.nasa.gov/sbdb.cgi?sstr=2318050",
      "absolute_magnitude_h" : 18.7,
      "estimated_diameter" : {
        "kilometers" : {
          "estimated_diameter_min" : 0.4836764882,
          "estimated_diameter_max" : 1.0815335068
        },
        "meters" : {
          "estimated_diameter_min" : 483.6764882185,
          "estimated_diameter_max" : 1081.533506775
        },
        "miles" : {
          "estimated_diameter_min" : 0.3005425432,
          "estimated_diameter_max" : 0.6720335566
        },
        "feet" : {
          "estimated_diameter_min" : 1586.8651696069,
          "estimated_diameter_max" : 3548.3383903678
        }
      },
      "is_potentially_hazardous_asteroid" : false,
      "close_approach_data" : [ {
        "close_approach_date" : "1996-05-08",
        "epoch_date_close_approach" : 831538800000,
        "relative_velocity" : {
          "kilometers_per_second" : "4.9529707885",
          "kilometers_per_hour" : "17830.6948386208",
          "miles_per_hour" : "11079.3003568086"
        },
        "miss_distance" : {
          "astronomical" : "0.4641912294",
          "lunar" : "180.5703887939",
          "kilometers" : "69442016",
          "miles" : "43149272"
        },
        "orbiting_body" : "Earth"
      } ],
      "orbital_data" : {
        "orbit_id" : "44",
        "orbit_determination_date" : "2017-04-06 09:23:46",
        "orbit_uncertainty" : "0",
        "minimum_orbit_intersection" : ".256947",
        "jupiter_tisserand_invariant" : "3.829",
        "epoch_osculation" : "2458000.5",
        "eccentricity" : ".3392083421984892",
        "semi_major_axis" : "1.922512678091121",
        "inclination" : "10.93407493700062",
        "ascending_node_longitude" : "80.8439893735615",
        "orbital_period" : "973.6486041136129",
        "perihelion_distance" : "1.270380339700254",
        "perihelion_argument" : "172.7556360532962",
        "aphelion_distance" : "2.574645016481988",
        "perihelion_time" : "2458051.564204459828",
        "mean_anomaly" : "341.1193550446532",
        "mean_motion" : ".3697432507775592",
        "equinox" : "J2000"
      }
    }, {
      "links" : {
        "self" : "https://api.nasa.gov/neo/rest/v1/neo/3346460?api_key=t0TVs3DtDT2H8Oy2Zy8m2eVrNsAVKAexjcZXUckd"
      },
      "neo_reference_id" : "3346460",
      "name" : "(2006 SS134)",
      "nasa_jpl_url" : "http://ssd.jpl.nasa.gov/sbdb.cgi?sstr=3346460",
      "absolute_magnitude_h" : 21.4,
      "estimated_diameter" : {
        "kilometers" : {
          "estimated_diameter_min" : 0.1394938229,
          "estimated_diameter_max" : 0.3119176705
        },
        "meters" : {
          "estimated_diameter_min" : 139.4938229344,
          "estimated_diameter_max" : 311.9176705226
        },
        "miles" : {
          "estimated_diameter_min" : 0.0866774163,
          "estimated_diameter_max" : 0.1938165949
        },
        "feet" : {
          "estimated_diameter_min" : 457.6569140361,
          "estimated_diameter_max" : 1023.3519701574
        }
      },
      "is_potentially_hazardous_asteroid" : true,
      "close_approach_data" : [ {
        "close_approach_date" : "1996-05-08",
        "epoch_date_close_approach" : 831538800000,
        "relative_velocity" : {
          "kilometers_per_second" : "14.4385209613",
          "kilometers_per_hour" : "51978.6754608211",
          "miles_per_hour" : "32297.5275384197"
        },
        "miss_distance" : {
          "astronomical" : "0.3735146393",
          "lunar" : "145.2971954346",
          "kilometers" : "55876996",
          "miles" : "34720356"
        },
        "orbiting_body" : "Earth"
      } ],
      "orbital_data" : {
        "orbit_id" : "30",
        "orbit_determination_date" : "2017-04-06 09:08:01",
        "orbit_uncertainty" : "1",
        "minimum_orbit_intersection" : ".0298549",
        "jupiter_tisserand_invariant" : "5.245",
        "epoch_osculation" : "2458000.5",
        "eccentricity" : ".4419525981798083",
        "semi_major_axis" : "1.171281901667405",
        "inclination" : "19.5374160223805",
        "ascending_node_longitude" : "9.050147492153574",
        "orbital_period" : "463.0102186051064",
        "perihelion_distance" : ".6536308220245088",
        "perihelion_argument" : "256.0761755264923",
        "aphelion_distance" : "1.688932981310302",
        "perihelion_time" : "2458110.142569129310",
        "mean_anomaly" : "274.7506398336832",
        "mean_motion" : ".7775206367681442",
        "equinox" : "J2000"
      }
    }, {
      "links" : {
        "self" : "https://api.nasa.gov/neo/rest/v1/neo/3429818?api_key=t0TVs3DtDT2H8Oy2Zy8m2eVrNsAVKAexjcZXUckd"
      },
      "neo_reference_id" : "3429818",
      "name" : "(2008 TC2)",
      "nasa_jpl_url" : "http://ssd.jpl.nasa.gov/sbdb.cgi?sstr=3429818",
      "absolute_magnitude_h" : 23.3,
      "estimated_diameter" : {
        "kilometers" : {
          "estimated_diameter_min" : 0.058150704,
          "estimated_diameter_max" : 0.130028927
        },
        "meters" : {
          "estimated_diameter_min" : 58.1507039646,
          "estimated_diameter_max" : 130.0289270043
        },
        "miles" : {
          "estimated_diameter_min" : 0.0361331611,
          "estimated_diameter_max" : 0.0807962044
        },
        "feet" : {
          "estimated_diameter_min" : 190.7831555951,
          "estimated_diameter_max" : 426.6041048727
        }
      },
      "is_potentially_hazardous_asteroid" : false,
      "close_approach_data" : [ {
        "close_approach_date" : "1996-05-08",
        "epoch_date_close_approach" : 831538800000,
        "relative_velocity" : {
          "kilometers_per_second" : "8.7806970469",
          "kilometers_per_hour" : "31610.5093688684",
          "miles_per_hour" : "19641.5412242283"
        },
        "miss_distance" : {
          "astronomical" : "0.2434554784",
          "lunar" : "94.7041854858",
          "kilometers" : "36420424",
          "miles" : "22630602"
        },
        "orbiting_body" : "Earth"
      } ],
      "orbital_data" : {
        "orbit_id" : "15",
        "orbit_determination_date" : "2017-04-06 09:02:42",
        "orbit_uncertainty" : "5",
        "minimum_orbit_intersection" : ".018281",
        "jupiter_tisserand_invariant" : "5.738",
        "epoch_osculation" : "2458000.5",
        "eccentricity" : ".3104892212731174",
        "semi_major_axis" : "1.065854302095304",
        "inclination" : "5.75375969498926",
        "ascending_node_longitude" : "196.4877401864274",
        "orbital_period" : "401.9251574669905",
        "perihelion_distance" : ".7349180298471307",
        "perihelion_argument" : "71.96610776933649",
        "aphelion_distance" : "1.396790574343476",
        "perihelion_time" : "2457877.501240305084",
        "mean_anomaly" : "110.1686537096309",
        "mean_motion" : ".8956891433937332",
        "equinox" : "J2000"
      }
    } ]
  }
}